STARLINK-30069          
1 56834U 23079M   26067.48212902 -.00002416  00000+0 -80472-4 0  9995
2 56834  42.9986 110.4464 0000469 272.6695  87.4103 15.26726881152740
STARLINK-31961          
1 59894U 24100K   26068.53213910 -.00001330  00000+0 -38821-4 0  9992
2 59894  43.0038 119.2911 0001320 250.1404 109.9306 15.27573400101218
